NORAD_CAT_ID,OBJECT_NAME,OBJECT_TYPE,EPOCH,MEAN_MOTION,ECCENTRICITY,INCLINATION,RA_OF_ASC_NODE,ARG_OF_PERICENTER,MEAN_ANOMALY,BSTAR,MEAN_MOTION_DOT,MEAN_MOTION_DDOT,TLE_LINE0,TLE_LINE1,TLE_LINE2,SEMIMAJOR_AXIS,PERIOD,APOGEE,PERIGEE,DECAYED
52662.0,STARLINK-4044,PAYLOAD,2024-08-20 06:11:01,15.08846466,0.0001237,53.2173,176.9282,106.1048,254.008,-1.192e-05,-4.78e-06,0.0,0 STARLINK-4044,1 52662U 22053G   24233.25765295 -.00000478  00000-0 -11920-4 0  9996,2 52662  53.2173 176.9282 0001237 106.1048 254.0080 15.08846466125535,6917.861,95.437,540.581,538.87,0.0
52662.0,STARLINK-4044,PAYLOAD,2024-08-21 02:51:02,15.08841505,0.0001313,53.2164,173.0643,105.68,254.4337,6.3593e-05,7.24e-06,0.0,0 STARLINK-4044,1 52662U 22053G   24234.11877465  .00000724  00000-0  63593-4 0  9990,2 52662  53.2164 173.0643 0001313 105.6800 254.4337 15.08841505125661,6917.876,95.437,540.649,538.832,0.0
52662.0,STARLINK-4044,PAYLOAD,2024-08-21 20:20:16,15.08839408,0.0001434,53.2162,169.7926,107.8091,252.3058,6.498e-05,7.46e-06,0.0,0 STARLINK-4044,1 52662U 22053G   24234.84741708  .00000746  00000-0  64980-4 0  9995,2 52662  53.2162 169.7926 0001434 107.8091 252.3058 15.08839408125773,6917.882,95.438,540.739,538.755,0.0
